[{"OBJECT_NAME":"SKYKRAFT-1A","OBJECT_ID":"2023-001AX","EPOCH":"2026-03-09T17:03:19.828224","MEAN_MOTION":15.28083228,"ECCENTRICITY":0.00112767,"INCLINATION":97.3349,"RA_OF_ASC_NODE":127.629,"ARG_OF_PERICENTER":121.5092,"MEAN_ANOMALY":238.7251,"EPHEMERIS_TYPE":0,"CLASSIFICATION_TYPE":"U","NORAD_CAT_ID":55054,"ELEMENT_SET_NO":999,"REV_AT_EPOCH":17652,"BSTAR":0.0003006872,"MEAN_MOTION_DOT":8.177e-5,"MEAN_MOTION_DDOT":0},{"OBJECT_NAME":"STARLINK-31191","OBJECT_ID":"2024-012P","EPOCH":"2026-03-09T07:49:36.776640","MEAN_MOTION":15.27576274,"ECCENTRICITY":6.114e-5,"INCLINATION":42.9995,"RA_OF_ASC_NODE":167.0192,"ARG_OF_PERICENTER":223.2336,"MEAN_ANOMALY":136.8468,"EPHEMERIS_TYPE":0,"CLASSIFICATION_TYPE":"U","NORAD_CAT_ID":58800,"ELEMENT_SET_NO":999,"REV_AT_EPOCH":12118,"BSTAR":-9.4376727e-5,"MEAN_MOTION_DOT":-2.857e-5,"MEAN_MOTION_DDOT":0}]
